[{"CCSDS_OMM_VERS":"2.0","COMMENT":"GENERATED VIA SPACE-TRACK.ORG API","CREATION_DATE":"2021-09-26T18:06:40","ORIGINATOR":"18 SPCS","OBJECT_NAME":"TBA - TO BE ASSIGNED","OBJECT_ID":"","CENTER_NAME":"EARTH","REF_FRAME":"TEME","TIME_SYSTEM":"UTC","MEAN_ELEMENT_THEORY":"SGP4","EPOCH":"2021-09-26T12:39:30.393504","MEAN_MOTION":"11.81420146","ECCENTRICITY":"0.10584643","INCLINATION":"83.1093","RA_OF_ASC_NODE":"350.2915","ARG_OF_PERICENTER":"356.5436","MEAN_ANOMALY":"2.8683","EPHEMERIS_TYPE":"0","CLASSIFICATION_TYPE":"U","NORAD_CAT_ID":"270272","ELEMENT_SET_NO":"999","REV_AT_EPOCH":"6886","BSTAR":"0.00132432980000","MEAN_MOTION_DOT":"0.00000406","MEAN_MOTION_DDOT":"0.0000000000000","SEMIMAJOR_AXIS":"8143.272","PERIOD":"121.887","APOAPSIS":"2627.073","PERIAPSIS":"903.200","OBJECT_TYPE":"TBA","RCS_SIZE":null,"COUNTRY_CODE":null,"LAUNCH_DATE":null,"SITE":null,"DECAY_DATE":null,"FILE":"3129258","GP_ID":"185540765","TLE_LINE0":"0 TBA - TO BE ASSIGNED","TLE_LINE1":"1 T0272U          21269.52743511  .00000406  00000-0  13243-2 0  9994","TLE_LINE2":"2 T0272  83.1093 350.2915 1058464 356.5436   2.8683 11.81420146 68865"},{"CCSDS_OMM_VERS":"2.0","COMMENT":"GENERATED VIA SPACE-TRACK.ORG API","CREATION_DATE":"2021-10-03T04:23:41","ORIGINATOR":"18 SPCS","OBJECT_NAME":"TBA - TO BE ASSIGNED","OBJECT_ID":"","CENTER_NAME":"EARTH","REF_FRAME":"TEME","TIME_SYSTEM":"UTC","MEAN_ELEMENT_THEORY":"SGP4","EPOCH":"2021-10-02T16:43:57.431136","MEAN_MOTION":"12.57924891","ECCENTRICITY":"0.01458859","INCLINATION":"102.1859","RA_OF_ASC_NODE":"66.7891","ARG_OF_PERICENTER":"76.2196","MEAN_ANOMALY":"285.5065","EPHEMERIS_TYPE":"0","CLASSIFICATION_TYPE":"U","NORAD_CAT_ID":"270271","ELEMENT_SET_NO":"999","REV_AT_EPOCH":"7137","BSTAR":"0.00030265433000","MEAN_MOTION_DOT":"0.00000006","MEAN_MOTION_DDOT":"0.0000000000000","SEMIMAJOR_AXIS":"7809.658","PERIOD":"114.474","APOAPSIS":"1545.455","PERIAPSIS":"1317.591","OBJECT_TYPE":"TBA","RCS_SIZE":null,"COUNTRY_CODE":null,"LAUNCH_DATE":null,"SITE":null,"DECAY_DATE":null,"FILE":"3141323","GP_ID":"186041694","TLE_LINE0":"0 TBA - TO BE ASSIGNED","TLE_LINE1":"1 T0271U          21275.69719249  .00000006  00000-0  30265-3 0  9999","TLE_LINE2":"2 T0271 102.1859  66.7891 0145886  76.2196 285.5065 12.57924891 71375"},{"CCSDS_OMM_VERS":"2.0","COMMENT":"GENERATED VIA SPACE-TRACK.ORG API","CREATION_DATE":"2021-10-02T03:59:35","ORIGINATOR":"18 SPCS","OBJECT_NAME":"TBA - TO BE ASSIGNED","OBJECT_ID":"","CENTER_NAME":"EARTH","REF_FRAME":"TEME","TIME_SYSTEM":"UTC","MEAN_ELEMENT_THEORY":"SGP4","EPOCH":"2021-10-01T22:11:35.369952","MEAN_MOTION":"12.57099054","ECCENTRICITY":"0.01457412","INCLINATION":"82.4693","RA_OF_ASC_NODE":"148.8210","ARG_OF_PERICENTER":"55.5220","MEAN_ANOMALY":"305.9536","EPHEMERIS_TYPE":"0","CLASSIFICATION_TYPE":"U","NORAD_CAT_ID":"270270","ELEMENT_SET_NO":"999","REV_AT_EPOCH":"7114","BSTAR":"0.01633941000000","MEAN_MOTION_DOT":"0.00002849","MEAN_MOTION_DDOT":"0.0000000000000","SEMIMAJOR_AXIS":"7813.078","PERIOD":"114.549","APOAPSIS":"1548.812","PERIAPSIS":"1321.075","OBJECT_TYPE":"TBA","RCS_SIZE":null,"COUNTRY_CODE":null,"LAUNCH_DATE":null,"SITE":null,"DECAY_DATE":null,"FILE":"3139397","GP_ID":"185950921","TLE_LINE0":"0 TBA - TO BE ASSIGNED","TLE_LINE1":"1 T0270U          21274.92471493  .00002849  00000-0  16339-1 0  9990","TLE_LINE2":"2 T0270  82.4693 148.8210 0145741  55.5220 305.9536 12.57099054 71144"},{"CCSDS_OMM_VERS":"2.0","COMMENT":"GENERATED VIA SPACE-TRACK.ORG API","CREATION_DATE":"2021-10-03T04:23:41","ORIGINATOR":"18 SPCS","OBJECT_NAME":"TBA - TO BE ASSIGNED","OBJECT_ID":"","CENTER_NAME":"EARTH","REF_FRAME":"TEME","TIME_SYSTEM":"UTC","MEAN_ELEMENT_THEORY":"SGP4","EPOCH":"2021-10-02T06:35:44.616480","MEAN_MOTION":"13.29625565","ECCENTRICITY":"0.00848878","INCLINATION":"82.5815","RA_OF_ASC_NODE":"266.1133","ARG_OF_PERICENTER":"35.7880","MEAN_ANOMALY":"324.8897","EPHEMERIS_TYPE":"0","CLASSIFICATION_TYPE":"U","NORAD_CAT_ID":"270269","ELEMENT_SET_NO":"999","REV_AT_EPOCH":"7513","BSTAR":"0.00033847572000","MEAN_MOTION_DOT":"0.00000173","MEAN_MOTION_DDOT":"0.0000000000000","SEMIMAJOR_AXIS":"7526.313","PERIOD":"108.301","APOAPSIS":"1212.067","PERIAPSIS":"1084.289","OBJECT_TYPE":"TBA","RCS_SIZE":null,"COUNTRY_CODE":null,"LAUNCH_DATE":null,"SITE":null,"DECAY_DATE":null,"FILE":"3141323","GP_ID":"186041752","TLE_LINE0":"0 TBA - TO BE ASSIGNED","TLE_LINE1":"1 T0269U          21275.27482195  .00000173  00000-0  33848-3 0  9992","TLE_LINE2":"2 T0269  82.5815 266.1133 0084888  35.7880 324.8897 13.29625565 75138"},{"CCSDS_OMM_VERS":"2.0","COMMENT":"GENERATED VIA SPACE-TRACK.ORG API","CREATION_DATE":"2021-10-03T04:23:41","ORIGINATOR":"18 SPCS","OBJECT_NAME":"TBA - TO BE ASSIGNED","OBJECT_ID":"","CENTER_NAME":"EARTH","REF_FRAME":"TEME","TIME_SYSTEM":"UTC","MEAN_ELEMENT_THEORY":"SGP4","EPOCH":"2021-10-02T09:17:46.731552","MEAN_MOTION":"12.97433386","ECCENTRICITY":"0.00267382","INCLINATION":"90.2754","RA_OF_ASC_NODE":"329.2996","ARG_OF_PERICENTER":"263.4922","MEAN_ANOMALY":"96.3154","EPHEMERIS_TYPE":"0","CLASSIFICATION_TYPE":"U","NORAD_CAT_ID":"270268","ELEMENT_SET_NO":"999","REV_AT_EPOCH":"7371","BSTAR":"0.00083157586000","MEAN_MOTION_DOT":"0.00000249","MEAN_MOTION_DDOT":"0.0000000000000","SEMIMAJOR_AXIS":"7650.300","PERIOD":"110.988","APOAPSIS":"1292.620","PERIAPSIS":"1251.709","OBJECT_TYPE":"TBA","RCS_SIZE":null,"COUNTRY_CODE":null,"LAUNCH_DATE":null,"SITE":null,"DECAY_DATE":null,"FILE":"3141323","GP_ID":"186041868","TLE_LINE0":"0 TBA - TO BE ASSIGNED","TLE_LINE1":"1 T0268U          21275.38734643  .00000249  00000-0  83158-3 0  9994","TLE_LINE2":"2 T0268  90.2754 329.2996 0026738 263.4922  96.3154 12.97433386 73711"},{"CCSDS_OMM_VERS":"2.0","COMMENT":"GENERATED VIA SPACE-TRACK.ORG API","CREATION_DATE":"2021-10-03T04:23:41","ORIGINATOR":"18 SPCS","OBJECT_NAME":"TBA - TO BE ASSIGNED","OBJECT_ID":"","CENTER_NAME":"EARTH","REF_FRAME":"TEME","TIME_SYSTEM":"UTC","MEAN_ELEMENT_THEORY":"SGP4","EPOCH":"2021-10-02T10:00:01.535616","MEAN_MOTION":"12.95532207","ECCENTRICITY":"0.00262966","INCLINATION":"90.2773","RA_OF_ASC_NODE":"327.2535","ARG_OF_PERICENTER":"328.2266","MEAN_ANOMALY":"31.7266","EPHEMERIS_TYPE":"0","CLASSIFICATION_TYPE":"U","NORAD_CAT_ID":"270267","ELEMENT_SET_NO":"999","REV_AT_EPOCH":"7393","BSTAR":"0.00057798923000","MEAN_MOTION_DOT":"0.00000171","MEAN_MOTION_DDOT":"0.0000000000000","SEMIMAJOR_AXIS":"7657.783","PERIOD":"111.151","APOAPSIS":"1299.785","PERIAPSIS":"1259.510","OBJECT_TYPE":"TBA","RCS_SIZE":null,"COUNTRY_CODE":null,"LAUNCH_DATE":null,"SITE":null,"DECAY_DATE":null,"FILE":"3141323","GP_ID":"186041521","TLE_LINE0":"0 TBA - TO BE ASSIGNED","TLE_LINE1":"1 T0267U          21275.41668444  .00000171  00000-0  57799-3 0  9998","TLE_LINE2":"2 T0267  90.2773 327.2535 0026297 328.2266  31.7266 12.95532207 73930"},{"CCSDS_OMM_VERS":"2.0","COMMENT":"GENERATED VIA SPACE-TRACK.ORG API","CREATION_DATE":"2021-09-30T20:16:47","ORIGINATOR":"18 SPCS","OBJECT_NAME":"TBA - TO BE ASSIGNED","OBJECT_ID":"","CENTER_NAME":"EARTH","REF_FRAME":"TEME","TIME_SYSTEM":"UTC","MEAN_ELEMENT_THEORY":"SGP4","EPOCH":"2021-09-30T09:19:47.627616","MEAN_MOTION":"12.44752168","ECCENTRICITY":"0.00661653","INCLINATION":"82.4571","RA_OF_ASC_NODE":"159.2613","ARG_OF_PERICENTER":"48.9649","MEAN_ANOMALY":"311.7125","EPHEMERIS_TYPE":"0","CLASSIFICATION_TYPE":"U","NORAD_CAT_ID":"270266","ELEMENT_SET_NO":"999","REV_AT_EPOCH":"7056","BSTAR":"0.01482717700000","MEAN_MOTION_DOT":"0.00002130","MEAN_MOTION_DDOT":"0.0000000000000","SEMIMAJOR_AXIS":"7864.659","PERIOD":"115.686","APOAPSIS":"1538.561","PERIAPSIS":"1434.488","OBJECT_TYPE":"TBA","RCS_SIZE":null,"COUNTRY_CODE":null,"LAUNCH_DATE":null,"SITE":null,"DECAY_DATE":null,"FILE":"3136969","GP_ID":"185850314","TLE_LINE0":"0 TBA - TO BE ASSIGNED","TLE_LINE1":"1 T0266U          21273.38874569  .00002130  00000-0  14827-1 0  9998","TLE_LINE2":"2 T0266  82.4571 159.2613 0066165  48.9649 311.7125 12.44752168 70562"},{"CCSDS_OMM_VERS":"2.0","COMMENT":"GENERATED VIA SPACE-TRACK.ORG API","CREATION_DATE":"2021-10-03T04:23:41","ORIGINATOR":"18 SPCS","OBJECT_NAME":"TBA - TO BE ASSIGNED","OBJECT_ID":"","CENTER_NAME":"EARTH","REF_FRAME":"TEME","TIME_SYSTEM":"UTC","MEAN_ELEMENT_THEORY":"SGP4","EPOCH":"2021-10-02T08:40:28.581024","MEAN_MOTION":"12.55190459","ECCENTRICITY":"0.01556046","INCLINATION":"82.4593","RA_OF_ASC_NODE":"150.0117","ARG_OF_PERICENTER":"40.4793","MEAN_ANOMALY":"320.7748","EPHEMERIS_TYPE":"0","CLASSIFICATION_TYPE":"U","NORAD_CAT_ID":"270265","ELEMENT_SET_NO":"999","REV_AT_EPOCH":"7225","BSTAR":"0.02246964800000","MEAN_MOTION_DOT":"0.00003837","MEAN_MOTION_DDOT":"0.0000000000000","SEMIMAJOR_AXIS":"7820.996","PERIOD":"114.724","APOAPSIS":"1564.560","PERIAPSIS":"1321.163","OBJECT_TYPE":"TBA","RCS_SIZE":null,"COUNTRY_CODE":null,"LAUNCH_DATE":null,"SITE":null,"DECAY_DATE":null,"FILE":"3141323","GP_ID":"186041578","TLE_LINE0":"0 TBA - TO BE ASSIGNED","TLE_LINE1":"1 T0265U          21275.36144191  .00003837  00000-0  22470-1 0  9996","TLE_LINE2":"2 T0265  82.4593 150.0117 0155605  40.4793 320.7748 12.55190459 72258"}]